<?xml version='1.0' encoding='UTF-8'?>
<osm version='0.6' upload='false' generator='manually'>
  <bounds minlat='52.39335304866' minlon='13.1300873334' maxlat='52.39339888389' maxlon='13.13017396043' />
  <node id='-26651' action='modify' lat='52.39339888389' lon='13.13016870898' />
  <node id='-26656' action='modify' lat='52.39338806055' lon='13.13017006383'>
    <tag k='door' v='hinged' />
    <tag k='indoor' v='door' />
  </node>
  <node id='-26648' action='modify' lat='52.39335693222' lon='13.13017396043' />
  <node id='-26649' action='modify' lat='52.39335304866' lon='13.13009240239' />
  <node id='-26652' action='modify' lat='52.39339549341' lon='13.1300873334' />
  <way id='-1493' action='modify'>
    <nd ref='-26651' />
    <nd ref='-26656' />
    <nd ref='-26648' />
    <nd ref='-26649' />
    <nd ref='-26652' />
    <nd ref='-26651' />
    <tag k='indoor' v='room' />
    <tag k='level' v='0' />
    <tag k='ref' v='K-E.18' />
  </way>
</osm>
